NORAD_CAT_ID,OBJECT_NAME,OBJECT_TYPE,EPOCH,MEAN_MOTION,ECCENTRICITY,INCLINATION,RA_OF_ASC_NODE,ARG_OF_PERICENTER,MEAN_ANOMALY,BSTAR,MEAN_MOTION_DOT,MEAN_MOTION_DDOT,TLE_LINE0,TLE_LINE1,TLE_LINE2,SEMIMAJOR_AXIS,PERIOD,APOGEE,PERIGEE,DECAYED
51890.0,STARLINK-3519,PAYLOAD,2024-06-29 05:07:17,15.09660026,0.000152,53.2181,252.924,93.7787,266.338,3.9771e-05,3.57e-06,0.0,0 STARLINK-3519,1 51890U 22022AQ  24181.21339484  .00000357  00000-0  39771-4 0  9997,2 51890  53.2181 252.9240 0001520  93.7787 266.3380 15.09660026129913,6915.375,95.386,538.291,536.189,0.0
51890.0,STARLINK-3519,PAYLOAD,2024-06-29 09:53:17,15.09628992,0.0001559,53.2182,252.0305,102.2651,257.8516,0.00031297,4.803e-05,0.0,0 STARLINK-3519,1 51890U 22022AQ  24181.41201378  .00004803  00000-0  31297-3 0  9993,2 51890  53.2182 252.0305 0001559 102.2651 257.8516 15.09628992129940,6915.47,95.388,538.413,536.257,0.0
51890.0,STARLINK-3519,PAYLOAD,2024-06-29 14:39:18,15.09643935,0.0001323,53.2179,251.1412,84.8418,275.2725,-4.7718e-05,-1.066e-05,0.0,0 STARLINK-3519,1 51890U 22022AQ  24181.61063298 -.00001066  00000-0 -47718-4 0  9998,2 51890  53.2179 251.1412 0001323  84.8418 275.2725 15.09643935129973,6915.424,95.387,538.204,536.374,0.0
51890.0,STARLINK-3519,PAYLOAD,2024-06-30 04:57:18,15.09652545,0.0001091,53.2175,248.465,63.6829,296.4275,-1.4942e-05,-5.33e-06,0.0,0 STARLINK-3519,1 51890U 22022AQ  24182.20646444 -.00000533  00000-0 -14942-4 0  9995,2 51890  53.2175 248.4650 0001091  63.6829 296.4275 15.09652545130069,6915.398,95.386,538.017,536.508,0.0
51890.0,STARLINK-3519,PAYLOAD,2024-06-30 11:18:38,15.09658643,0.000121,53.2167,247.273,90.7227,269.3904,-1.5587e-05,-5.44e-06,0.0,0 STARLINK-3519,1 51890U 22022AQ  24182.47127643 -.00000544  00000-0 -15587-4 0  9997,2 51890  53.2167 247.2730 0001210  90.7227 269.3904 15.09658643130100,6915.379,95.386,538.081,536.407,0.0
51890.0,STARLINK-3519,PAYLOAD,2024-06-30 20:50:38,15.09659729,0.0001213,53.2167,245.4875,90.9828,269.1304,-6.2229e-06,-3.91e-06,0.0,0 STARLINK-3519,1 51890U 22022AQ  24182.86849973 -.00000391  00000-0 -62229-5 0  9993,2 51890  53.2167 245.4875 0001213  90.9828 269.1304 15.09659729130166,6915.376,95.386,538.08,536.402,0.0
51890.0,STARLINK-3519,PAYLOAD,2024-07-01 04:47:19,15.0964945,0.000133,53.218,244.0009,93.041,267.0735,-9.7358e-06,-4.49e-06,0.0,0 STARLINK-3519,1 51890U 22022AQ  24183.19952854 -.00000449  00000-0 -97358-5 0  9998,2 51890  53.2180 244.0009 0001330  93.0410 267.0735 15.09649450130217,6915.407,95.386,538.192,536.353,0.0
51890.0,STARLINK-3519,PAYLOAD,2024-07-01 14:19:19,15.09651217,0.0001344,53.2179,242.215,87.6086,272.5061,7.0681e-05,8.6e-06,0.0,0 STARLINK-3519,1 51890U 22022AQ  24183.59675099  .00000860  00000-0  70681-4 0  9999,2 51890  53.2179 242.2150 0001344  87.6086 272.5061 15.09651217130278,6915.402,95.386,538.196,536.338,0.0
51890.0,STARLINK-3519,PAYLOAD,2024-07-01 20:40:39,15.0964708,0.0001458,53.2179,241.0246,92.4761,267.6399,0.00013985,1.986e-05,0.0,0 STARLINK-3519,1 51890U 22022AQ  24183.86156932  .00001986  00000-0  13985-3 0  9992,2 51890  53.2179 241.0246 0001458  92.4761 267.6399 15.09647080130318,6915.415,95.387,538.288,536.271,0.0
51890.0,STARLINK-3519,PAYLOAD,2024-07-02 03:01:59,15.09655701,0.0001475,53.2179,239.8341,97.7681,262.3479,5.446e-05,5.96e-06,0.0,0 STARLINK-3519,1 51890U 22022AQ  24184.12638321  .00000596  00000-0  54460-4 0  9999,2 51890  53.2179 239.8341 0001475  97.7681 262.3479 15.09655701130351,6915.388,95.386,538.273,536.233,0.0
51890.0,STARLINK-3519,PAYLOAD,2024-07-02 14:09:19,15.09656826,0.000142,53.2175,237.7509,97.6462,262.4692,3.0134e-05,2e-06,0.0,0 STARLINK-3519,1 51890U 22022AQ  24184.58981259  .00000200  00000-0  30134-4 0  9994,2 51890  53.2175 237.7509 0001420  97.6462 262.4692 15.09656826130421,6915.385,95.386,538.232,536.268,0.0
51890.0,STARLINK-3519,PAYLOAD,2024-07-03 10:48:40,15.09653861,0.0001301,53.2171,233.8816,98.409,261.7049,2.0467e-05,4.3e-07,0.0,0 STARLINK-3519,1 51890U 22022AQ  24185.45046890  .00000043  00000-0  20467-4 0  9997,2 51890  53.2171 233.8816 0001301  98.4090 261.7049 15.09653861130557,6915.394,95.386,538.159,536.359,0.0
51890.0,STARLINK-3519,PAYLOAD,2024-07-03 20:20:40,15.09657925,0.0001309,53.2172,232.0959,85.6609,274.4533,2.0231e-05,3.9e-07,0.0,0 STARLINK-3519,1 51890U 22022AQ  24185.84769161  .00000039  00000-0  20231-4 0  9997,2 51890  53.2172 232.0959 0001309  85.6609 274.4533 15.09657925130610,6915.381,95.386,538.152,536.341,0.0
51890.0,STARLINK-3519,PAYLOAD,2024-07-04 12:14:00,15.09659762,0.0001297,53.217,229.1197,84.4586,275.6554,3.4341e-05,2.69e-06,0.0,0 STARLINK-3519,1 51890U 22022AQ  24186.50973099  .00000269  00000-0  34341-4 0  9990,2 51890  53.2170 229.1197 0001297  84.4586 275.6554 15.09659762130714,6915.376,95.386,538.138,536.344,0.0
51890.0,STARLINK-3519,PAYLOAD,2024-07-04 20:10:40,15.09661461,0.0001301,53.2172,227.6318,84.4744,275.6397,4.8083e-05,4.93e-06,0.0,0 STARLINK-3519,1 51890U 22022AQ  24186.84074937  .00000493  00000-0  48083-4 0  9997,2 51890  53.2172 227.6318 0001301  84.4744 275.6397 15.09661461130765,6915.371,95.386,538.135,536.336,0.0
51890.0,STARLINK-3519,PAYLOAD,2024-07-05 08:53:21,15.09656162,0.0001338,53.2173,225.2512,84.757,275.3575,3.0291e-05,2.03e-06,0.0,0 STARLINK-3519,1 51890U 22022AQ  24187.37038541  .00000203  00000-0  30291-4 0  9998,2 51890  53.2173 225.2512 0001338  84.7570 275.3575 15.09656162130842,6915.387,95.386,538.177,536.327,0.0
51890.0,STARLINK-3519,PAYLOAD,2024-07-05 20:00:41,15.096572,0.0001326,53.2169,223.1681,84.6387,275.4757,1.3675e-05,-6.8e-07,0.0,0 STARLINK-3519,1 51890U 22022AQ  24187.83381420 -.00000068  00000-0  13675-4 0  9993,2 51890  53.2169 223.1681 0001326  84.6387 275.4757 15.09657200130918,6915.384,95.386,538.166,536.332,0.0
51890.0,STARLINK-3519,PAYLOAD,2024-07-06 08:43:22,15.09652596,0.0001319,53.217,220.7874,83.9475,276.1667,-6.4931e-06,-3.96e-06,0.0,0 STARLINK-3519,1 51890U 22022AQ  24188.36345063 -.00000396  00000-0 -64931-5 0  9992,2 51890  53.2170 220.7874 0001319  83.9475 276.1667 15.09652596130998,6915.398,95.386,538.175,536.351,0.0
51890.0,STARLINK-3519,PAYLOAD,2024-07-07 05:22:42,15.0965839,0.0001347,53.2171,216.9192,80.9254,279.1891,2.8543e-05,1.74e-06,0.0,0 STARLINK-3519,1 51890U 22022AQ  24189.22409824  .00000174  00000-0  28543-4 0  9994,2 51890  53.2171 216.9192 0001347  80.9254 279.1891 15.09658390131128,6915.38,95.386,538.177,536.314,0.0
51890.0,STARLINK-3519,PAYLOAD,2024-07-07 06:58:02,15.09658445,0.0001351,53.217,216.6216,80.931,279.1835,2.842e-05,1.72e-06,0.0,0 STARLINK-3519,1 51890U 22022AQ  24189.29030224  .00000172  00000-0  28420-4 0  9997,2 51890  53.2170 216.6216 0001351  80.9310 279.1835 15.09658445131139,6915.38,95.386,538.179,536.311,0.0
51890.0,STARLINK-3519,PAYLOAD,2024-07-08 06:48:03,15.09652216,0.0001346,53.2166,212.1576,78.7973,281.3171,1.3712e-05,-6.7e-07,0.0,0 STARLINK-3519,1 51890U 22022AQ  24190.28336862 -.00000067  00000-0  13712-4 0  9997,2 51890  53.2166 212.1576 0001346  78.7973 281.3171 15.09652216131282,6915.399,95.386,538.195,536.333,0.0
51890.0,STARLINK-3519,PAYLOAD,2024-07-08 17:55:23,15.09652636,0.0001345,53.2165,210.075,76.5698,283.5444,-3.738e-06,-3.51e-06,0.0,0 STARLINK-3519,1 51890U 22022AQ  24190.74679891 -.00000351  00000-0 -37380-5 0  9995,2 51890  53.2165 210.0750 0001345  76.5698 283.5444 15.09652636131352,6915.398,95.386,538.193,536.332,0.0
51890.0,STARLINK-3519,PAYLOAD,2024-07-09 08:13:23,15.0965512,0.0001289,53.216,207.3962,77.7319,282.3818,1.5697e-06,-2.65e-06,0.0,0 STARLINK-3519,1 51890U 22022AQ  24191.34263458 -.00000265  00000-0  15697-5 0  9990,2 51890  53.2160 207.3962 0001289  77.7319 282.3818 15.09655120131444,6915.39,95.386,538.146,536.364,0.0
51890.0,STARLINK-3519,PAYLOAD,2024-07-10 08:03:24,15.09650085,0.0001269,53.216,202.9328,78.6043,281.5092,9.3411e-06,-1.38e-06,0.0,0 STARLINK-3519,1 51890U 22022AQ  24192.33570175 -.00000138  00000-0  93411-5 0  9996,2 51890  53.2160 202.9328 0001269  78.6043 281.5092 15.09650085131599,6915.405,95.386,538.148,536.393,0.0
51890.0,STARLINK-3519,PAYLOAD,2024-07-11 09:28:44,15.09657596,0.0001333,53.2163,198.1719,81.0585,279.0558,5.3617e-05,5.83e-06,0.0,0 STARLINK-3519,1 51890U 22022AQ  24193.39496394  .00000583  00000-0  53617-4 0  9999,2 51890  53.2163 198.1719 0001333  81.0585 279.0558 15.09657596131754,6915.382,95.386,538.169,536.326,0.0
51890.0,STARLINK-3519,PAYLOAD,2024-07-11 17:25:24,15.09659246,0.0001332,53.2165,196.6844,85.1985,274.9159,7.309e-05,9e-06,0.0,0 STARLINK-3519,1 51890U 22022AQ  24193.72598254  .00000900  00000-0  73090-4 0  9994,2 51890  53.2165 196.6844 0001332  85.1985 274.9159 15.09659246131807,6915.377,95.386,538.164,536.321,0.0
51890.0,STARLINK-3519,PAYLOAD,2024-07-12 07:43:25,15.09658943,0.0001332,53.2163,194.0054,85.9771,274.1374,7.8151e-05,9.82e-06,0.0,0 STARLINK-3519,1 51890U 22022AQ  24194.32181922  .00000982  00000-0  78151-4 0  9994,2 51890  53.2163 194.0054 0001332  85.9771 274.1374 15.09658943131894,6915.378,95.386,538.164,536.322,0.0
51890.0,STARLINK-3519,PAYLOAD,2024-07-12 17:15:25,15.09653556,0.0001377,53.2161,192.2199,84.9443,275.1706,1.212e-05,-9.3e-07,0.0,0 STARLINK-3519,1 51890U 22022AQ  24194.71905006 -.00000093  00000-0  12120-4 0  9992,2 51890  53.2161 192.2199 0001377  84.9443 275.1706 15.09653556131958,6915.395,95.386,538.212,536.308,0.0
51890.0,STARLINK-3519,PAYLOAD,2024-07-13 09:08:46,15.09657926,0.0001365,53.2161,189.244,85.6378,274.477,5.1784e-06,-2.06e-06,0.0,0 STARLINK-3519,1 51890U 22022AQ  24195.38108933 -.00000206  00000-0  51784-5 0  9996,2 51890  53.2161 189.2440 0001365  85.6378 274.4770 15.09657926132055,6915.381,95.386,538.19,536.302,0.0
51890.0,STARLINK-3519,PAYLOAD,2024-07-13 17:05:25,15.09661959,0.0001374,53.2163,187.7564,85.4555,274.6594,2.7664e-05,1.6e-06,0.0,0 STARLINK-3519,1 51890U 22022AQ  24195.71210616  .00000160  00000-0  27664-4 0  9992,2 51890  53.2163 187.7564 0001374  85.4555 274.6594 15.09661959132105,6915.369,95.386,538.184,536.284,0.0
